STARLINK-30703          
1 57954U 23148V   26068.17233657 -.00000135  00000+0  75500-5 0  9995
2 57954  53.1630  16.5742 0000989  92.0491 268.0623 15.30189336138486
TRANSPORTER-12 OBJECT AZ
1 62656U 25009AZ  26068.71026235  .00016057  00000+0  54903-3 0  9991
2 62656  97.3981 151.9913 0000987  45.3581 314.7740 15.30349724 63792
